Satellite: XATCOBEO
Catalog number: 38082
Epoch time:      14243.34478676
Element set:     563
Inclination:      069.3815 deg
RA of node:       097.0364 deg
Eccentricity:    0.0033293
Arg of perigee:   225.1799 deg
Mean anomaly:     135.4582 deg
Mean motion:   16.41261006 rev/day
Decay rate:  1.3583328e-01 rev/day^2
Epoch rev:           13623
Checksum:              317

Satellite: CUBEBUG-1
Catalog number: 39153
Epoch time:      14317.17104829
Element set:     639
Inclination:      098.0338 deg
RA of node:       037.1364 deg
Eccentricity:    0.0016984
Arg of perigee:   227.6070 deg
Mean anomaly:     132.3703 deg
Mean motion:   14.78229326 rev/day
Decay rate:      2.562e-05 rev/day^2
Epoch rev:            8355
Checksum:              303

Satellite: ESTCUBE-1
Catalog number: 39161
Epoch time:      14317.34420002
Element set:     656
Inclination:      098.0873 deg
RA of node:       037.1004 deg
Eccentricity:    0.0008582
Arg of perigee:   284.8913 deg
Mean anomaly:     075.1359 deg
Mean motion:   14.70398231 rev/day
Decay rate:      2.284e-05 rev/day^2
Epoch rev:            8151
Checksum:              285

Satellite: DUCHIFAT-1
Catalog number: 40021
Epoch time:      14317.27157905
Element set:     435
Inclination:      097.9661 deg
RA of node:       212.2181 deg
Eccentricity:    0.0014250
Arg of perigee:   166.0190 deg
Mean anomaly:     194.1461 deg
Mean motion:   14.86177988 rev/day
Decay rate:      5.166e-05 rev/day^2
Epoch rev:            2171
Checksum:              285

Satellite: NANOSATCBR1
Catalog number: 40024
Epoch time:      14317.28352214
Element set:     426
Inclination:      097.9660 deg
RA of node:       212.1743 deg
Eccentricity:    0.0013591
Arg of perigee:   163.6107 deg
Mean anomaly:     196.5555 deg
Mean motion:   14.85994034 rev/day
Decay rate:      4.609e-05 rev/day^2
Epoch rev:            2171
Checksum:              287

Satellite: DTUSAT-2
Catalog number: 40030
Epoch time:      14317.25833909
Element set:     424
Inclination:      097.9647 deg
RA of node:       212.0367 deg
Eccentricity:    0.0012821
Arg of perigee:   156.9720 deg
Mean anomaly:     203.2046 deg
Mean motion:   14.85468191 rev/day
Decay rate:      3.708e-05 rev/day^2
Epoch rev:            2171
Checksum:              283

Satellite: ANTELSAT
Catalog number: 40034
Epoch time:      14317.26018106
Element set:     432
Inclination:      097.9623 deg
RA of node:       208.8759 deg
Eccentricity:    0.0062555
Arg of perigee:   090.3558 deg
Mean anomaly:     270.4853 deg
Mean motion:   14.71673049 rev/day
Decay rate:      2.733e-05 rev/day^2
Epoch rev:            2152
Checksum:              292

/EX
SB KEPS @ AMSAT  $ORB14317.W
Orbital Elements  14317.WEATHER

HR AMSAT ORBITAL ELEMENTS FOR WEATHER SATELLITES
FROM WA5QGD FORT WORTH,TX November 13, 2014
BID: ORB14317.W
TO ALL RADIO AMATEURS BT

Satellite: MET-2/21
Catalog number: 22782
Epoch time:      14316.82501219
Element set:     222
Inclination:      082.5516 deg
RA of node:       055.3634 deg
Eccentricity:    0.0022165
Arg of perigee:   204.9276 deg
Mean anomaly:     305.1863 deg
Mean motion:   13.83752624 rev/day
Decay rate:        6.1e-07 rev/day^2
Epoch rev:            7067
Checksum:              279

Satellite: OKEAN-4
Catalog number: 23317
Epoch time:      14316.79701999
Element set:     707
Inclination:      082.5372 deg
RA of node:       288.5625 deg
Eccentricity:    0.0019317
Arg of perigee:   331.5674 deg
Mean anomaly:     118.6792 deg
Mean motion:   14.85916069 rev/day
Decay rate:      2.304e-05 rev/day^2
Epoch rev:            8517
Checksum:              335

Satellite: NOAA-14
Catalog number: 23455
Epoch time:      14317.23780429
Element set:     977
Inclination:      098.7704 deg
RA of node:       037.9679 deg
Eccentricity:    0.0008809
Arg of perigee:   340.9885 deg
Mean anomaly:     078.0271 deg
Mean motion:   14.13999952 rev/day
Decay rate:        3.0e-07 rev/day^2
Epoch rev:            2501
Checksum:              335

Satellite: NOAA-15
Catalog number: 25338
Epoch time:      14317.14710765
Element set:     417
Inclination:      098.7625 deg
RA of node:       310.7955 deg
Eccentricity:    0.0011651
Arg of perigee:   078.3175 deg
Mean anomaly:     054.4629 deg
Mean motion:   14.25503440 rev/day
Decay rate:       2.46e-06 rev/day^2
Epoch rev:           85806
Checksum:              305

Satellite: RESURS
Catalog number: 25394
Epoch time:      14316.86077231
Element set:     806
Inclination:      098.4347 deg
RA of node:       275.1217 deg
Eccentricity:    0.0001819
Arg of perigee:   148.5405 deg
Mean anomaly:     263.9675 deg
Mean motion:   14.24413756 rev/day
Decay rate:        8.2e-07 rev/day^2
Epoch rev:           84948
Checksum:              320

Satellite: FENGYUN1
Catalog number: 25730
Epoch time:      14315.85697785
Element set:     294
Inclination:      098.9253 deg
RA of node:       276.1494 deg
Eccentricity:    0.0022913
Arg of perigee:   051.7473 deg
Mean anomaly:     000.7319 deg
Mean motion:   14.12403287 rev/day
Decay rate:      3.330e-05 rev/day^2
Epoch rev:           79836
Checksum:              317

Satellite: OKEAN-0
Catalog number: 25860
Epoch time:      14316.83458453
Element set:     414
Inclination:      098.0642 deg
RA of node:       280.0002 deg
Eccentricity:    0.0001000
Arg of perigee:   092.9388 deg
Mean anomaly:     324.0820 deg
Mean motion:   14.75546653 rev/day
Decay rate:      1.030e-05 rev/day^2
Epoch rev:           82407
Checksum:              265

Satellite: NOAA-16
Catalog number: 26536
Epoch time:      14317.20486520
Element set:     915
Inclination:      098.9731 deg
RA of node:       018.0799 deg
Eccentricity:    0.0011499
Arg of perigee:   122.1810 deg
Mean anomaly:     238.0478 deg
Mean motion:   14.13052693 rev/day
Decay rate:       1.02e-06 rev/day^2
Epoch rev:           72915
Checksum:              300

Satellite: NOAA-17
Catalog number: 27453
Epoch time:      14317.14417342
Element set:     804
Inclination:      098.3233 deg
RA of node:       309.0802 deg
Eccentricity:    0.0012926
Arg of perigee:   097.8404 deg
Mean anomaly:     262.4244 deg
Mean motion:   14.24811497 rev/day
Decay rate:       2.49e-06 rev/day^2
Epoch rev:           64389
Checksum:              305

Satellite: NOAA-18
Catalog number: 28654
Epoch time:      14317.19914968
Element set:     329
Inclination:      099.1653 deg
RA of node:       299.8179 deg
Eccentricity:    0.0014040
Arg of perigee:   202.6406 deg
Mean anomaly:     285.8035 deg
Mean motion:   14.12096375 rev/day
Decay rate:       1.02e-06 rev/day^2
Epoch rev:           48859
Checksum:              334

Satellite: NOAA-19
Catalog number: 33591
Epoch time:      14317.11917203
Element set:     460
Inclination:      098.9624 deg
RA of node:       261.8233 deg
Eccentricity:    0.0014931
Arg of perigee:   061.7798 deg
Mean anomaly:     069.1268 deg
Mean motion:   14.11802271 rev/day
Decay rate:       3.37e-06 rev/day^2
Epoch rev:           29700
Checksum:              300

/EX
SB KEPS @ AMSAT  $ORB14317.M
Orbital Elements  14317.MISC

HR AMSAT ORBITAL ELEMENTS FOR MANNED AND MISCELLANEOUS SATELLITES
FROM WA5QGD FORT WORTH,TX November 13, 2014
BID: ORB14317.M
TO ALL RADIO AMATEURS BT

Satellite: HUBBLE
Catalog number: 20580
Epoch time:      14315.80850291
Element set:     154
Inclination:      028.4691 deg
RA of node:       146.3075 deg
Eccentricity:    0.0003521
Arg of perigee:   063.0347 deg
Mean anomaly:     045.4200 deg
Mean motion:   15.06135453 rev/day
Decay rate:      3.352e-05 rev/day^2
Epoch rev:           14699
Checksum:              260

Satellite: ISS
Catalog number: 25544
Epoch time:      14316.99401744
Element set:     405
Inclination:      051.6389 deg
RA of node:       081.8996 deg
Eccentricity:    0.0007886
Arg of perigee:   022.5816 deg
Mean anomaly:     085.1772 deg
Mean motion:   15.50927485 rev/day
Decay rate:     1.7511e-04 rev/day^2
Epoch rev:           91441
Checksum:              325

Satellite: CO-58
Catalog number: 28895
Epoch time:      14316.79372520
Element set:     920
Inclination:      097.8236 deg
RA of node:       150.9013 deg
Eccentricity:    0.0016075
Arg of perigee:   260.2665 deg
Mean anomaly:     099.6722 deg
Mean motion:   14.62189526 rev/day
Decay rate:      1.218e-05 rev/day^2
Epoch rev:           48196
Checksum:              334

Satellite: FALCON
Catalog number: 30776
Epoch time:      14316.94727741
Element set:       3
Inclination:      035.4289 deg
RA of node:       271.3595 deg
Eccentricity:    0.0003327
Arg of perigee:   213.2101 deg
Mean anomaly:     191.6420 deg
Mean motion:   15.18825282 rev/day
Decay rate:     1.2672e-04 rev/day^2
Epoch rev:           42333
Checksum:              275

Satellite: MAST
Catalog number: 31126
Epoch time:      14316.84465282
Element set:     201
Inclination:      097.9328 deg
RA of node:       290.1462 deg
Eccentricity:    0.0090403
Arg of perigee:   250.2704 deg
Mean anomaly:     176.9463 deg
Mean motion:   14.55571469 rev/day
Decay rate:       8.92e-06 rev/day^2
Epoch rev:           40201
Checksum:              286

Satellite: CAPE1
Catalog number: 31130
Epoch time:      14316.86401551
Element set:     207
Inclination:      097.9542 deg
RA of node:       287.0124 deg
Eccentricity:    0.0096800
Arg of perigee:   269.4316 deg
Mean anomaly:     089.5790 deg
Mean motion:   14.54839341 rev/day
Decay rate:      1.501e-05 rev/day^2
Epoch rev:           40142
Checksum:              283

